NORAD_CAT_ID,OBJECT_NAME,OBJECT_TYPE,EPOCH,MEAN_MOTION,ECCENTRICITY,INCLINATION,RA_OF_ASC_NODE,ARG_OF_PERICENTER,MEAN_ANOMALY,BSTAR,MEAN_MOTION_DOT,MEAN_MOTION_DDOT,TLE_LINE0,TLE_LINE1,TLE_LINE2,SEMIMAJOR_AXIS,PERIOD,APOGEE,PERIGEE,DECAYED
55665.0,STARLINK-5474,PAYLOAD,2024-08-06 04:46:38,14.98319088,0.0002908,69.9991,188.0395,269.8002,90.2824,-9.128e-05,-1.182e-05,0.0,0 STARLINK-5474,1 55665U 23021AP  24219.19905475 -.00001182  00000-0 -91280-4 0  9991,2 55665  69.9991 188.0395 0002908 269.8002  90.2824 14.98319088 82031,6950.227,96.108,574.113,570.071,0.0
55665.0,STARLINK-5474,PAYLOAD,2024-08-06 07:58:54,14.98319533,0.0002865,69.9992,187.7029,269.5073,90.5757,-8.338e-05,-1.087e-05,0.0,0 STARLINK-5474,1 55665U 23021AP  24219.33257507 -.00001087  00000-0 -83380-4 0  9999,2 55665  69.9992 187.7029 0002865 269.5073  90.5757 14.98319533 82357,6950.225,96.108,574.081,570.099,0.0
55665.0,STARLINK-5474,PAYLOAD,2024-08-06 22:24:06,14.98327329,0.0003066,69.9988,186.1878,269.0747,91.006,7.0024e-05,7.43e-06,0.0,0 STARLINK-5474,1 55665U 23021AP  24219.93340829  .00000743  00000-0  70024-4 0  9992,2 55665  69.9988 186.1878 0003066 269.0747  91.0060 14.98327329 82449,6950.201,96.107,574.197,569.935,0.0
55665.0,STARLINK-5474,PAYLOAD,2024-08-07 03:12:30,14.98330489,0.0003036,69.9989,185.6829,269.0301,91.051,0.00010465,1.156e-05,0.0,0 STARLINK-5474,1 55665U 23021AP  24220.13368704  .00001156  00000-0  10465-3 0  9999,2 55665  69.9989 185.6829 0003036 269.0301  91.0510 14.98330489 82174,6950.191,96.107,574.166,569.946,0.0
55665.0,STARLINK-5474,PAYLOAD,2024-08-07 06:24:46,14.98336527,0.0003027,69.9988,185.3462,268.7135,91.3678,0.00014154,1.596e-05,0.0,0 STARLINK-5474,1 55665U 23021AP  24220.26720292  .00001596  00000-0  14154-3 0  9994,2 55665  69.9988 185.3462 0003027 268.7135  91.3678 14.98336527 82496,6950.173,96.107,574.142,569.934,0.0
55665.0,STARLINK-5474,PAYLOAD,2024-08-08 08:02:55,14.98343715,0.0002623,70.0016,182.6527,269.0896,90.9962,0.00050982,5.997e-05,0.0,0 STARLINK-5474,1 55665U 23021AP  24221.33536139  .00005997  00000-0  50982-3 0  9996,2 55665  70.0016 182.6527 0002623 269.0896  90.9962 14.98343715 82658,6950.15,96.106,573.839,570.192,0.0
55665.0,STARLINK-5474,PAYLOAD,2024-08-08 22:28:08,14.9832779,0.0002311,70.0038,181.138,248.934,111.1572,0.00063262,7.463e-05,0.0,0 STARLINK-5474,1 55665U 23021AP  24221.93620713  .00007463  00000-0  63262-3 0  9999,2 55665  70.0038 181.1380 0002311 248.9340 111.1572 14.98327790 82745,6950.2,96.107,573.671,570.459,0.0
55665.0,STARLINK-5474,PAYLOAD,2024-08-09 04:52:39,14.983371,0.000276,70.0009,180.4652,260.9215,99.1632,4.3137e-05,4.22e-06,0.0,0 STARLINK-5474,1 55665U 23021AP  24222.20324045  .00000422  00000-0  43137-4 0  9997,2 55665  70.0009 180.4652 0002760 260.9215  99.1632 14.98337100 82489,6950.171,96.107,573.954,570.118,0.0
55665.0,STARLINK-5474,PAYLOAD,2024-08-09 08:04:55,14.9833993,0.0002726,70.0011,180.1284,260.2623,99.8229,0.00011396,1.267e-05,0.0,0 STARLINK-5474,1 55665U 23021AP  24222.33675888  .00001267  00000-0  11396-3 0  9994,2 55665  70.0011 180.1284 0002726 260.2623  99.8229 14.98339930 82806,6950.162,96.106,573.922,570.133,0.0
55665.0,STARLINK-5474,PAYLOAD,2024-08-09 20:54:00,14.98339036,0.000247,70.0017,178.7817,260.3643,99.7237,-8.2713e-06,-1.92e-06,0.0,0 STARLINK-5474,1 55665U 23021AP  24222.87083822 -.00000192  00000-0 -82713-5 0  9995,2 55665  70.0017 178.7817 0002470 260.3643  99.7237 14.98339036 82889,6950.165,96.106,573.747,570.313,0.0
55665.0,STARLINK-5474,PAYLOAD,2024-08-10 04:54:40,14.98334731,0.0002484,70.0016,177.9402,256.7733,103.3149,2.9193e-05,2.55e-06,0.0,0 STARLINK-5474,1 55665U 23021AP  24223.20463885  .00000255  00000-0  29193-4 0  9994,2 55665  70.0016 177.9402 0002484 256.7733 103.3149 14.98334731 82637,6950.178,96.107,573.77,570.317,0.0
55665.0,STARLINK-5474,PAYLOAD,2024-08-10 22:32:09,14.9833288,0.0002591,70.0012,176.0873,260.068,100.0187,0.0002157,2.482e-05,0.0,0 STARLINK-5474,1 55665U 23021AP  24223.93899907  .00002482  00000-0  21570-3 0  9996,2 55665  70.0012 176.0873 0002591 260.0680 100.0187 14.98332880 83048,6950.184,96.107,573.85,570.248,0.0
55665.0,STARLINK-5474,PAYLOAD,2024-08-11 06:32:49,14.9833997,0.0002702,70.0014,175.2481,264.6416,95.4435,0.00029658,3.448e-05,0.0,0 STARLINK-5474,1 55665U 23021AP  24224.27279523  .00003448  00000-0  29658-3 0  9998,2 55665  70.0014 175.2481 0002702 264.6416  95.4435 14.98339970 82798,6950.162,96.106,573.905,570.149,0.0
55665.0,STARLINK-5474,PAYLOAD,2024-08-11 20:58:02,14.9833355,0.0002526,70.0017,173.7321,262.0188,98.0684,0.0001177,1.312e-05,0.0,0 STARLINK-5474,1 55665U 23021AP  24224.87363665  .00001312  00000-0  11770-3 0  9999,2 55665  70.0017 173.7321 0002526 262.0188  98.0684 14.98333550 82882,6950.182,96.107,573.803,570.291,0.0
55665.0,STARLINK-5474,PAYLOAD,2024-08-11 22:34:10,14.98332304,0.0002556,70.0018,173.5639,263.2724,96.8144,9.0473e-05,9.87e-06,0.0,0 STARLINK-5474,1 55665U 23021AP  24224.94039700  .00000987  00000-0  90473-4 0  9992,2 55665  70.0018 173.5639 0002556 263.2724  96.8144 14.98332304 83193,6950.186,96.107,573.827,570.274,0.0
55665.0,STARLINK-5474,PAYLOAD,2024-08-12 06:34:50,14.98340222,0.0002519,70.001,172.7251,263.0546,97.0327,0.0001772,2.023e-05,0.0,0 STARLINK-5474,1 55665U 23021AP  24225.27418991  .00002023  00000-0  17720-3 0  9998,2 55665  70.0010 172.7251 0002519 263.0546  97.0327 14.98340222 82941,6950.161,96.106,573.777,570.276,0.0
55665.0,STARLINK-5474,PAYLOAD,2024-08-12 22:36:10,14.9834613,0.0002578,70.0018,171.0406,264.1247,95.9618,0.00021925,2.525e-05,0.0,0 STARLINK-5474,1 55665U 23021AP  24225.94178526  .00002525  00000-0  21925-3 0  9998,2 55665  70.0018 171.0406 0002578 264.1247  95.9618 14.98346130 83347,6950.143,96.106,573.8,570.216,0.0
55665.0,STARLINK-5474,PAYLOAD,2024-08-13 13:01:24,14.98309646,0.0002799,70.0018,169.5243,276.8847,83.1993,-0.00050703,-6.134e-05,0.0,0 STARLINK-5474,1 55665U 23021AP  24226.54263972 -.00006134  00000-0 -50703-3 0  9993,2 55665  70.0018 169.5243 0002799 276.8847  83.1993 14.98309646 83132,6950.256,96.108,574.066,570.175,0.0
55665.0,STARLINK-5474,PAYLOAD,2024-08-13 22:38:14,14.98275723,0.0002586,70.0007,168.5141,276.4672,83.6192,-0.00092649,-0.00011114,0.0,0 STARLINK-5474,1 55665U 23021AP  24226.94322649 -.00011114  00000-0 -92649-3 0  9993,2 55665  70.0007 168.5141 0002586 276.4672  83.6192 14.98275723 83495,6950.361,96.11,574.023,570.428,0.0
55665.0,STARLINK-5474,PAYLOAD,2024-08-14 13:03:25,14.98323108,0.0003131,69.9998,167.0003,274.3087,85.7714,-0.00011871,-1.509e-05,0.0,0 STARLINK-5474,1 55665U 23021AP  24227.54404906 -.00001509  00000-0 -11871-3 0  9992,2 55665  69.9998 167.0003 0003131 274.3087  85.7714 14.98323108 83287,6950.214,96.107,574.255,569.903,0.0
55665.0,STARLINK-5474,PAYLOAD,2024-08-14 22:40:14,14.98327269,0.0003258,70.0002,165.9889,272.6981,87.3805,0.0001564,1.773e-05,0.0,0 STARLINK-5474,1 55665U 23021AP  24227.94461000  .00001773  00000-0  15640-3 0  9993,2 55665  70.0002 165.9889 0003258 272.6981  87.3805 14.98327269 83640,6950.201,96.107,574.331,569.802,0.0
55665.0,STARLINK-5474,PAYLOAD,2024-08-15 05:04:46,14.98344586,0.0003074,69.9998,165.3167,273.5313,86.5495,0.00094806,0.00011242,0.0,0 STARLINK-5474,1 55665U 23021AP  24228.21164782  .00011242  00000-0  94806-3 0  9994,2 55665  69.9998 165.3167 0003074 273.5313  86.5495 14.98344586 83387,6950.148,96.106,574.149,569.876,0.0
55665.0,STARLINK-5474,PAYLOAD,2024-08-15 13:05:27,14.9833402,0.0002325,70.0017,164.4748,273.7221,86.3672,0.00079741,9.435e-05,0.0,0 STARLINK-5474,1 55665U 23021AP  24228.54545561  .00009435  00000-0  79741-3 0  9990,2 55665  70.0017 164.4748 0002325 273.7221  86.3672 14.98334020 83731,6950.18,96.107,573.661,570.43,0.0
55665.0,STARLINK-5474,PAYLOAD,2024-08-15 22:42:15,14.98337353,0.0002562,70.0012,163.4655,275.1149,84.9718,0.00077638,9.184e-05,0.0,0 STARLINK-5474,1 55665U 23021AP  24228.94601279  .00009184  00000-0  77638-3 0  9997,2 55665  70.0012 163.4655 0002562 275.1149  84.9718 14.98337353 83793,6950.17,96.107,573.816,570.255,0.0
55665.0,STARLINK-5474,PAYLOAD,2024-08-16 05:06:47,14.98333482,0.0002659,70.0013,162.7932,273.46,86.6255,0.00078432,9.278e-05,0.0,0 STARLINK-5474,1 55665U 23021AP  24229.21305257  .00009278  00000-0  78432-3 0  9992,2 55665  70.0013 162.7932 0002659 273.4600  86.6255 14.98333482 83530,6950.182,96.107,573.895,570.199,0.0
55665.0,STARLINK-5474,PAYLOAD,2024-08-16 19:31:59,14.98343611,0.0002662,70.0013,161.2762,269.2371,90.8483,2.0482e-05,1.52e-06,0.0,0 STARLINK-5474,1 55665U 23021AP  24229.81388131  .00000152  00000-0  20482-4 0  9995,2 55665  70.0013 161.2762 0002662 269.2371  90.8483 14.98343611 83925,6950.151,96.106,573.866,570.166,0.0
55665.0,STARLINK-5474,PAYLOAD,2024-08-17 05:08:47,14.98345144,0.0002398,70.0008,160.267,262.6647,97.4239,7.1013e-05,7.55e-06,0.0,0 STARLINK-5474,1 55665U 23021AP  24230.21443896  .00000755  00000-0  71013-4 0  9996,2 55665  70.0008 160.2670 0002398 262.6647  97.4239 14.98345144 83683,6950.146,96.106,573.678,570.344,0.0
55665.0,STARLINK-5474,PAYLOAD,2024-08-17 17:57:52,14.98338829,0.0002414,70.0013,158.9229,259.9151,100.1736,3.0152e-05,2.67e-06,0.0,0 STARLINK-5474,1 55665U 23021AP  24230.74851928  .00000267  00000-0  30152-4 0  9990,2 55665  70.0013 158.9229 0002414 259.9151 100.1736 14.98338829 83766,6950.166,96.106,573.708,570.353,0.0
55665.0,STARLINK-5474,PAYLOAD,2024-08-18 03:34:40,14.9833431,0.0002558,70.0008,157.9117,261.0805,99.0065,-0.00010087,-1.296e-05,0.0,0 STARLINK-5474,1 55665U 23021AP  24231.14908288 -.00001296  00000-0 -10087-3 0  9996,2 55665  70.0008 157.9117 0002558 261.0805  99.0065 14.98334310 83823,6950.18,96.107,573.822,570.267,0.0
55665.0,STARLINK-5474,PAYLOAD,2024-08-18 05:10:48,14.98338502,0.0002942,70.0,157.7419,268.7682,91.314,-4.108e-05,-5.83e-06,0.0,0 STARLINK-5474,1 55665U 23021AP  24231.21583822 -.00000583  00000-0 -41080-4 0  9993,2 55665  70.0000 157.7419 0002942 268.7682  91.3140 14.98338502 84133,6950.167,96.106,574.076,569.987,0.0
